LEMUR-2-KREMPEL-BRO1    
1 63357U 25061G   26065.36082683  .00005964  00000+0  33354-3 0  9997
2 63357  97.5525  41.9890 0017347 241.5501 118.3983 15.13726733 52075
LEMUR-2-LANGER2SPACE    
1 63358U 25061H   26065.36676160  .00005814  00000+0  32837-3 0  9996
2 63358  97.5532  41.8508 0015200 251.2482 108.7100 15.13414895 52067
LEMUR-2-BALTO           
1 63395U 25052BH  26065.29032591  .00007769  00000+0  64776-3 0  9991
2 63395  97.6988 320.1546 0002721   8.2365 351.8902 14.98872822 53346
