[{"OBJECT_NAME":"LEMUR-2-KREMPEL-BRO1","OBJECT_ID":"2025-061G","EPOCH":"2026-03-06T08:39:35.438112","MEAN_MOTION":15.13726733,"ECCENTRICITY":0.00173471,"INCLINATION":97.5525,"RA_OF_ASC_NODE":41.989,"ARG_OF_PERICENTER":241.5501,"MEAN_ANOMALY":118.3983,"EPHEMERIS_TYPE":0,"CLASSIFICATION_TYPE":"U","NORAD_CAT_ID":63357,"ELEMENT_SET_NO":999,"REV_AT_EPOCH":5207,"BSTAR":0.00033354009,"MEAN_MOTION_DOT":5.964e-5,"MEAN_MOTION_DDOT":0},{"OBJECT_NAME":"LEMUR-2-LANGER2SPACE","OBJECT_ID":"2025-061H","EPOCH":"2026-03-06T08:48:08.202240","MEAN_MOTION":15.13414895,"ECCENTRICITY":0.00152001,"INCLINATION":97.5532,"RA_OF_ASC_NODE":41.8508,"ARG_OF_PERICENTER":251.2482,"MEAN_ANOMALY":108.71,"EPHEMERIS_TYPE":0,"CLASSIFICATION_TYPE":"U","NORAD_CAT_ID":63358,"ELEMENT_SET_NO":999,"REV_AT_EPOCH":5206,"BSTAR":0.00032836821,"MEAN_MOTION_DOT":5.814e-5,"MEAN_MOTION_DDOT":0},{"OBJECT_NAME":"LEMUR-2-BALTO","OBJECT_ID":"2025-052BH","EPOCH":"2026-03-06T06:58:04.158624","MEAN_MOTION":14.98872822,"ECCENTRICITY":0.0002721,"INCLINATION":97.6988,"RA_OF_ASC_NODE":320.1546,"ARG_OF_PERICENTER":8.2365,"MEAN_ANOMALY":351.8902,"EPHEMERIS_TYPE":0,"CLASSIFICATION_TYPE":"U","NORAD_CAT_ID":63395,"ELEMENT_SET_NO":999,"REV_AT_EPOCH":5334,"BSTAR":0.0006477568,"MEAN_MOTION_DOT":7.769e-5,"MEAN_MOTION_DDOT":0}]
